[{"OBJECT_NAME":"SCATSAT 1","OBJECT_ID":"2016-059H","EPOCH":"2026-03-07T14:59:23.015616","MEAN_MOTION":14.79255831,"ECCENTRICITY":0.00542465,"INCLINATION":98.1308,"RA_OF_ASC_NODE":129.3119,"ARG_OF_PERICENTER":214.2289,"MEAN_ANOMALY":145.5421,"EPHEMERIS_TYPE":0,"CLASSIFICATION_TYPE":"U","NORAD_CAT_ID":41790,"ELEMENT_SET_NO":999,"REV_AT_EPOCH":8657,"BSTAR":0.00027773731,"MEAN_MOTION_DOT":2.058e-5,"MEAN_MOTION_DDOT":0},{"OBJECT_NAME":"GOKTURK 1A","OBJECT_ID":"2016-073A","EPOCH":"2026-03-07T15:58:58.671840","MEAN_MOTION":14.62745766,"ECCENTRICITY":0.00013575,"INCLINATION":98.1367,"RA_OF_ASC_NODE":322.8701,"ARG_OF_PERICENTER":79.6497,"MEAN_ANOMALY":280.4857,"EPHEMERIS_TYPE":0,"CLASSIFICATION_TYPE":"U","NORAD_CAT_ID":41875,"ELEMENT_SET_NO":999,"REV_AT_EPOCH":49398,"BSTAR":5.6322276e-5,"MEAN_MOTION_DOT":2.4e-6,"MEAN_MOTION_DDOT":0},{"OBJECT_NAME":"RESOURCESAT-2A","OBJECT_ID":"2016-074A","EPOCH":"2026-03-07T15:35:28.528800","MEAN_MOTION":14.2159996,"ECCENTRICITY":0.0002623,"INCLINATION":98.7604,"RA_OF_ASC_NODE":140.9551,"ARG_OF_PERICENTER":40.2372,"MEAN_ANOMALY":319.8999,"EPHEMERIS_TYPE":0,"CLASSIFICATION_TYPE":"U","NORAD_CAT_ID":41877,"ELEMENT_SET_NO":999,"REV_AT_EPOCH":47987,"BSTAR":9.416805e-5,"MEAN_MOTION_DOT":1.62e-6,"MEAN_MOTION_DDOT":0},{"OBJECT_NAME":"CARTOSAT-2D","OBJECT_ID":"2017-008A","EPOCH":"2026-03-07T03:16:16.440096","MEAN_MOTION":15.19213991,"ECCENTRICITY":0.00042795,"INCLINATION":97.4241,"RA_OF_ASC_NODE":127.2813,"ARG_OF_PERICENTER":232.4694,"MEAN_ANOMALY":127.6152,"EPHEMERIS_TYPE":0,"CLASSIFICATION_TYPE":"U","NORAD_CAT_ID":41948,"ELEMENT_SET_NO":999,"REV_AT_EPOCH":50208,"BSTAR":7.991778e-6,"MEAN_MOTION_DOT":1.01e-6,"MEAN_MOTION_DDOT":0},{"OBJECT_NAME":"SENTINEL-2B","OBJECT_ID":"2017-013A","EPOCH":"2026-03-07T14:22:42.172608","MEAN_MOTION":14.30820404,"ECCENTRICITY":0.00011068,"INCLINATION":98.5658,"RA_OF_ASC_NODE":142.8234,"ARG_OF_PERICENTER":93.5599,"MEAN_ANOMALY":266.571,"EPHEMERIS_TYPE":0,"CLASSIFICATION_TYPE":"U","NORAD_CAT_ID":42063,"ELEMENT_SET_NO":999,"REV_AT_EPOCH":47011,"BSTAR":0.00021115177,"MEAN_MOTION_DOT":5.1e-6,"MEAN_MOTION_DDOT":0},{"OBJECT_NAME":"CARTOSAT-2E","OBJECT_ID":"2017-036C","EPOCH":"2026-03-07T14:44:35.044800","MEAN_MOTION":15.19303749,"ECCENTRICITY":0.00026305,"INCLINATION":97.4399,"RA_OF_ASC_NODE":128.026,"ARG_OF_PERICENTER":305.8736,"MEAN_ANOMALY":54.2254,"EPHEMERIS_TYPE":0,"CLASSIFICATION_TYPE":"U","NORAD_CAT_ID":42767,"ELEMENT_SET_NO":999,"REV_AT_EPOCH":48272,"BSTAR":0.00042525253,"MEAN_MOTION_DOT":8.914e-5,"MEAN_MOTION_DDOT":0},{"OBJECT_NAME":"FORMOSAT-5","OBJECT_ID":"2017-049A","EPOCH":"2026-03-07T14:29:11.444352","MEAN_MOTION":14.50820313,"ECCENTRICITY":0.0011801,"INCLINATION":98.2315,"RA_OF_ASC_NODE":144.1566,"ARG_OF_PERICENTER":42.4516,"MEAN_ANOMALY":317.759,"EPHEMERIS_TYPE":0,"CLASSIFICATION_TYPE":"U","NORAD_CAT_ID":42920,"ELEMENT_SET_NO":999,"REV_AT_EPOCH":45194,"BSTAR":9.4389603e-5,"MEAN_MOTION_DOT":3.28e-6,"MEAN_MOTION_DDOT":0},{"OBJECT_NAME":"SENTINEL-5P","OBJECT_ID":"2017-064A","EPOCH":"2026-03-07T10:04:11.531424","MEAN_MOTION":14.1954859,"ECCENTRICITY":0.00010893,"INCLINATION":98.788,"RA_OF_ASC_NODE":9.2962,"ARG_OF_PERICENTER":81.0043,"MEAN_ANOMALY":279.1256,"EPHEMERIS_TYPE":0,"CLASSIFICATION_TYPE":"U","NORAD_CAT_ID":42969,"ELEMENT_SET_NO":999,"REV_AT_EPOCH":43512,"BSTAR":8.192111e-5,"MEAN_MOTION_DOT":1.28e-6,"MEAN_MOTION_DDOT":0},{"OBJECT_NAME":"SKYSAT-C11","OBJECT_ID":"2017-068A","EPOCH":"2026-03-07T14:08:51.396000","MEAN_MOTION":15.52237439,"ECCENTRICITY":7.118e-5,"INCLINATION":97.4201,"RA_OF_ASC_NODE":211.5044,"ARG_OF_PERICENTER":86.4753,"MEAN_ANOMALY":273.6581,"EPHEMERIS_TYPE":0,"CLASSIFICATION_TYPE":"U","NORAD_CAT_ID":42987,"ELEMENT_SET_NO":999,"REV_AT_EPOCH":46745,"BSTAR":0.00070249953,"MEAN_MOTION_DOT":0.00042689,"MEAN_MOTION_DDOT":0},{"OBJECT_NAME":"SKYSAT-C10","OBJECT_ID":"2017-068B","EPOCH":"2026-03-07T12:17:17.421216","MEAN_MOTION":15.32615453,"ECCENTRICITY":0.00010514,"INCLINATION":97.4337,"RA_OF_ASC_NODE":202.6131,"ARG_OF_PERICENTER":89.5431,"MEAN_ANOMALY":270.5932,"EPHEMERIS_TYPE":0,"CLASSIFICATION_TYPE":"U","NORAD_CAT_ID":42988,"ELEMENT_SET_NO":999,"REV_AT_EPOCH":46677,"BSTAR":0.0005209626,"MEAN_MOTION_DOT":0.00016346,"MEAN_MOTION_DDOT":0},{"OBJECT_NAME":"SKYSAT-C9","OBJECT_ID":"2017-068C","EPOCH":"2026-03-07T15:10:26.484672","MEAN_MOTION":15.38807245,"ECCENTRICITY":0.00097411,"INCLINATION":97.4263,"RA_OF_ASC_NODE":202.7533,"ARG_OF_PERICENTER":139.6223,"MEAN_ANOMALY":220.5748,"EPHEMERIS_TYPE":0,"CLASSIFICATION_TYPE":"U","NORAD_CAT_ID":42989,"ELEMENT_SET_NO":999,"REV_AT_EPOCH":46712,"BSTAR":0.00054973212,"MEAN_MOTION_DOT":0.00021076,"MEAN_MOTION_DDOT":0},{"OBJECT_NAME":"SKYSAT-C8","OBJECT_ID":"2017-068D","EPOCH":"2026-03-07T08:51:18.753984","MEAN_MOTION":15.34686204,"ECCENTRICITY":0.00011596,"INCLINATION":97.4333,"RA_OF_ASC_NODE":201.8956,"ARG_OF_PERICENTER":14.0806,"MEAN_ANOMALY":346.0469,"EPHEMERIS_TYPE":0,"CLASSIFICATION_TYPE":"U","NORAD_CAT_ID":42990,"ELEMENT_SET_NO":999,"REV_AT_EPOCH":46668,"BSTAR":0.00023415862,"MEAN_MOTION_DOT":7.791e-5,"MEAN_MOTION_DDOT":0},{"OBJECT_NAME":"SKYSAT-C7","OBJECT_ID":"2017-068E","EPOCH":"2026-03-07T14:52:29.985600","MEAN_MOTION":15.3465384,"ECCENTRICITY":0.00073918,"INCLINATION":97.4365,"RA_OF_ASC_NODE":203.1357,"ARG_OF_PERICENTER":109.9574,"MEAN_ANOMALY":250.2466,"EPHEMERIS_TYPE":0,"CLASSIFICATION_TYPE":"U","NORAD_CAT_ID":42991,"ELEMENT_SET_NO":999,"REV_AT_EPOCH":46678,"BSTAR":0.00051889454,"MEAN_MOTION_DOT":0.00017379,"MEAN_MOTION_DDOT":0},{"OBJECT_NAME":"SKYSAT-C6","OBJECT_ID":"2017-068F","EPOCH":"2026-03-07T08:26:46.837536","MEAN_MOTION":15.32430772,"ECCENTRICITY":0.00035533,"INCLINATION":97.4399,"RA_OF_ASC_NODE":203.1575,"ARG_OF_PERICENTER":133.8042,"MEAN_ANOMALY":226.3494,"EPHEMERIS_TYPE":0,"CLASSIFICATION_TYPE":"U","NORAD_CAT_ID":42992,"ELEMENT_SET_NO":999,"REV_AT_EPOCH":46671,"BSTAR":0.00050832762,"MEAN_MOTION_DOT":0.00015857,"MEAN_MOTION_DDOT":0},{"OBJECT_NAME":"CARTOSAT-2F","OBJECT_ID":"2018-004A","EPOCH":"2026-03-07T15:30:48.923712","MEAN_MOTION":15.19240037,"ECCENTRICITY":7.493e-5,"INCLINATION":97.4158,"RA_OF_ASC_NODE":127.844,"ARG_OF_PERICENTER":226.7421,"MEAN_ANOMALY":133.3752,"EPHEMERIS_TYPE":0,"CLASSIFICATION_TYPE":"U","NORAD_CAT_ID":43111,"ELEMENT_SET_NO":999,"REV_AT_EPOCH":45191,"BSTAR":0.0003733695,"MEAN_MOTION_DOT":7.802e-5,"MEAN_MOTION_DDOT":0},{"OBJECT_NAME":"GAOFEN-1 02","OBJECT_ID":"2018-031A","EPOCH":"2026-03-07T15:24:48.953664","MEAN_MOTION":14.76432373,"ECCENTRICITY":0.00026726,"INCLINATION":98.0646,"RA_OF_ASC_NODE":129.3974,"ARG_OF_PERICENTER":357.1585,"MEAN_ANOMALY":2.9609,"EPHEMERIS_TYPE":0,"CLASSIFICATION_TYPE":"U","NORAD_CAT_ID":43259,"ELEMENT_SET_NO":999,"REV_AT_EPOCH":42771,"BSTAR":-2.7971815e-5,"MEAN_MOTION_DOT":-2.46e-6,"MEAN_MOTION_DDOT":0}]
