SCATSAT 1               
1 41790U 16059H   26066.62457194  .00002058  00000+0  27774-3 0  9994
2 41790  98.1308 129.3119 0054246 214.2289 145.5421 14.79255831 86570
GOKTURK 1A              
1 41875U 16073A   26066.66595685  .00000240  00000+0  56322-4 0  9999
2 41875  98.1367 322.8701 0001357  79.6497 280.4857 14.62745766493987
RESOURCESAT-2A          
1 41877U 16074A   26066.64963575  .00000162  00000+0  94168-4 0  9990
2 41877  98.7604 140.9551 0002623  40.2372 319.8999 14.21599960479878
CARTOSAT-2D             
1 41948U 17008A   26066.13630139  .00000101  00000+0  79918-5 0  9998
2 41948  97.4241 127.2813 0004279 232.4694 127.6152 15.19213991502081
SENTINEL-2B             
1 42063U 17013A   26066.59909922  .00000510  00000+0  21115-3 0  9990
2 42063  98.5658 142.8234 0001106  93.5599 266.5710 14.30820404470116
CARTOSAT-2E             
1 42767U 17036C   26066.61429450  .00008914  00000+0  42525-3 0  9996
2 42767  97.4399 128.0260 0002630 305.8736  54.2254 15.19303749482728
FORMOSAT-5              
1 42920U 17049A   26066.60360468  .00000328  00000+0  94390-4 0  9992
2 42920  98.2315 144.1566 0011801  42.4516 317.7590 14.50820313451949
SENTINEL-5P             
1 42969U 17064A   26066.41957791  .00000128  00000+0  81921-4 0  9996
2 42969  98.7880   9.2962 0001089  81.0043 279.1256 14.19548590435127
SKYSAT-C11              
1 42987U 17068A   26066.58948375  .00042689  00000+0  70250-3 0  9996
2 42987  97.4201 211.5044 0000711  86.4753 273.6581 15.52237439467453
SKYSAT-C10              
1 42988U 17068B   26066.51200719  .00016346  00000+0  52096-3 0  9992
2 42988  97.4337 202.6131 0001051  89.5431 270.5932 15.32615453466771
SKYSAT-C9               
1 42989U 17068C   26066.63225098  .00021076  00000+0  54973-3 0  9995
2 42989  97.4263 202.7533 0009741 139.6223 220.5748 15.38807245467125
SKYSAT-C8               
1 42990U 17068D   26066.36896706  .00007791  00000+0  23416-3 0  9993
2 42990  97.4333 201.8956 0001159  14.0806 346.0469 15.34686204466682
SKYSAT-C7               
1 42991U 17068E   26066.61979150  .00017379  00000+0  51889-3 0  9995
2 42991  97.4365 203.1357 0007391 109.9574 250.2466 15.34653840466782
SKYSAT-C6               
1 42992U 17068F   26066.35193099  .00015857  00000+0  50833-3 0  9994
2 42992  97.4399 203.1575 0003553 133.8042 226.3494 15.32430772466717
CARTOSAT-2F             
1 43111U 18004A   26066.64639958  .00007802  00000+0  37337-3 0  9995
2 43111  97.4158 127.8440 0000749 226.7421 133.3752 15.19240037451912
GAOFEN-1 02             
1 43259U 18031A   26066.64223326 -.00000246  00000+0 -27972-4 0  9998
2 43259  98.0646 129.3974 0002672 357.1585   2.9609 14.76432373427711
